[
    {
        "school": "Angevine Middle School ",
        "type": "Middle",
        "district": "BVSD",
        "zip": 80026,
        "lat": 39.9895563,
        "lon": -105.1048928,
        "courses": 1,
        "fr": 44,
        "white": 52.9,
        "black": 1.1,
        "latino": 40.3
    },
    {
        "school": "Aspen Creek K-8 School",
        "type": "Middle",
        "district": "BVSD",
        "zip": 80020,
        "lat": 39.9470043,
        "lon": -105.0585678,
        "courses": "Unknown",
        "fr": 13.2,
        "white": 78.7,
        "black": 1.1,
        "latino": 10.4
    },
    {
        "school": "Boulder Explore",
        "type": "Middle",
        "district": "BVSD",
        "zip": 80303,
        "lat": 39.9994656,
        "lon": -105.1763862,
        "courses": 0,
        "fr": 7,
        "white": 81,
        "black": 3,
        "latino": 7
    },
    {
        "school": "Boulder Universal",
        "type": "Middle/High",
        "district": "BVSD",
        "zip": 80303,
        "lat": 40.0140206,
        "lon": -105.1988554,
        "courses": 1,
        "fr": 11,
        "white": 80,
        "black": 0.8,
        "latino": 12.8
    },
    {
        "school": "Broomfield Heights Middle School",
        "type": "Middle",
        "district": "BVSD",
        "zip": 80020,
        "lat": 39.9374853,
        "lon": -105.0807832,
        "courses": "Unknown",
        "fr": 24,
        "white": 76,
        "black": 2,
        "latino": 15
    },
    {
        "school": "Casey Middle School",
        "type": "Middle",
        "district": "BVSD",
        "zip": 80304,
        "lat": 40.0233032,
        "lon": -105.2818702,
        "courses": 1,
        "fr": 40.7,
        "white": 52.4,
        "black": 1.5,
        "latino": 39.5
    },
    {
        "school": "Centennial Middle School",
        "type": "Middle",
        "district": "BVSD",
        "zip": 80304,
        "lat": 40.0449855,
        "lon": -105.2702341,
        "courses": 1,
        "fr": 24.9,
        "white": 63.5,
        "black": 0.5,
        "latino": 23
    },
    {
        "school": "Eldorado K-8 School",
        "type": "Middle",
        "district": "BVSD",
        "zip": 80027,
        "lat": 39.9208734,
        "lon": -105.1631487,
        "courses": 2,
        "fr": 5.6,
        "white": 72.2,
        "black": 1,
        "latino": 7.2
    },
    {
        "school": "Halcyon Middle-Senior",
        "type": "Middle/High",
        "district": "BVSD",
        "zip": 80305,
        "lat": 39.9922382,
        "lon": -105.2584839,
        "courses": 0,
        "fr": 57.9,
        "white": 42,
        "black": 0,
        "latino": 42
    },
    {
        "school": "Horizons K-8 School",
        "type": "Middle",
        "district": "BVSD",
        "zip": 80303,
        "lat": 39.9935077,
        "lon": -105.2400488,
        "courses": 1,
        "fr": 7.2,
        "white": 85,
        "black": 0.9,
        "latino": 4.6
    },
    {
        "school": "Louisville Middle School",
        "type": "Middle",
        "district": "BVSD",
        "zip": 80027,
        "lat": 39.9843508,
        "lon": -105.1351074,
        "courses": "Unknown",
        "fr": 12.1,
        "white": 77.3,
        "black": 0.5,
        "latino": 13.1
    },
    {
        "school": "Manhattan School of Arts and Academics",
        "type": "Middle",
        "district": "BVSD",
        "zip": 80303,
        "lat": 39.994817,
        "lon": -105.2305277,
        "courses": "Unknown",
        "fr": 29.1,
        "white": 63.7,
        "black": 1.3,
        "latino": 23.4
    },
    {
        "school": "Monarch K-8 School",
        "type": "Middle",
        "district": "BVSD",
        "zip": 80027,
        "lat": 39.9517109,
        "lon": -105.1460588,
        "courses": 1,
        "fr": 11,
        "white": 74.1,
        "black": 1.2,
        "latino": 8.2
    },
    {
        "school": "Nederland Middle-Senior High School",
        "type": "Middle/High",
        "district": "BVSD",
        "zip": 80466,
        "lat": 39.9529625,
        "lon": -105.5280902,
        "courses": 7,
        "fr": 26.2,
        "white": 83.1,
        "black": 0.3,
        "latino": 6.9
    },
    {
        "school": "Platt Middle School",
        "type": "Middle",
        "district": "BVSD",
        "zip": 80303,
        "lat": 40.0029252,
        "lon": -105.2116951,
        "courses": 1,
        "fr": 10.7,
        "white": 79.9,
        "black": 1.6,
        "latino": 8.1
    },
    {
        "school": "Southern Hills Middle School",
        "type": "Middle",
        "district": "BVSD",
        "zip": 80305,
        "lat": 39.9747079,
        "lon": -105.247178,
        "courses": 0,
        "fr": 7,
        "white": 83,
        "black": 0.5,
        "latino": 5.9
    },
    {
        "school": "Summit Charter Middle School",
        "type": "Middle",
        "district": "BVSD",
        "zip": 80305,
        "lat": 39.983319,
        "lon": -105.2421778,
        "courses": 5,
        "fr": 5.7,
        "white": 61,
        "black": 0,
        "latino": 7.4
    },
    {
        "school": "Boulder High School ",
        "type": "High",
        "district": "BVSD",
        "zip": 80302,
        "lat": 40.013811,
        "lon": -105.2768948,
        "courses": 7,
        "fr": 21.6,
        "white": 69.5,
        "black": 1.3,
        "latino": 19.8
    },
    {
        "school": "Boulder Preparatory High School ",
        "type": "High",
        "district": "BVSD",
        "zip": 80301,
        "lat": 40.0668902,
        "lon": -105.2052468,
        "courses": 2,
        "fr": 26.6,
        "white": 59.6,
        "black": 2.1,
        "latino": 35.1
    },
    {
        "school": "Broomfield High School ",
        "type": "High",
        "district": "BVSD",
        "zip": 80020,
        "lat": 39.9298959,
        "lon": -105.0774157,
        "courses": 1,
        "fr": 13.9,
        "white": 74.7,
        "black": 1.1,
        "latino": 16
    },
    {
        "school": "Career and Technical Education Center ",
        "type": "High",
        "district": "BVSD",
        "zip": 80303,
        "lat": 40.0136864,
        "lon": -105.2682373,
        "courses": 2,
        "fr": 62,
        "white": 31.5,
        "black": 1.5,
        "latino": 63.1
    },
    {
        "school": "Centarus High School ",
        "type": "High",
        "district": "BVSD",
        "zip": 80026,
        "lat": 39.9857619,
        "lon": -105.1151318,
        "courses": 9,
        "fr": 29.8,
        "white": 62.6,
        "black": 0.4,
        "latino": 28.7
    },
    {
        "school": "Fairview High School",
        "type": "High",
        "district": "BVSD",
        "zip": 80305,
        "lat": 39.9725075,
        "lon": -105.2483602,
        "courses": 3,
        "fr": 9.3,
        "white": 74.4,
        "black": 0.6,
        "latino": 9.4
    },
    {
        "school": "Justice High School ",
        "type": "High",
        "district": "BVSD",
        "zip": 80027,
        "lat": 39.9875038,
        "lon": -105.0828856,
        "courses": 0,
        "fr": 9.3,
        "white": 74.4,
        "black": 0.6,
        "latino": 9.4
    },
    {
        "school": "Monarch High School ",
        "type": "High",
        "district": "BVSD",
        "zip": 80027,
        "lat": 39.9523434,
        "lon": -105.143429,
        "courses": 2,
        "fr": 8.3,
        "white": 80.5,
        "black": 0.4,
        "latino": 8.9
    },
    {
        "school": "New Vista High School ",
        "type": "High",
        "district": "BVSD",
        "zip": 80302,
        "lat": 40.0009764,
        "lon": -105.2669553,
        "courses": "Unknown",
        "fr": 26.8,
        "white": 70.1,
        "black": 1,
        "latino": 19.4
    },
    {
        "school": "Peak to Peak ",
        "type": "Middle/High",
        "district": "BVSD",
        "zip": 80026,
        "lat": 39.9914501,
        "lon": -105.0805673,
        "courses": 5,
        "fr": 7.2,
        "white": 72.9,
        "black": 0.8,
        "latino": 9.3
    },
    {
        "school": "Cherokee Trail High School",
        "type": "High",
        "district": "CCSD",
        "zip": 80016,
        "lat": 39.5921289,
        "lon": -104.6864756,
        "courses": 8,
        "fr": 14,
        "white": 58.6,
        "black": 11.5,
        "latino": 14.3
    },
    {
        "school": "Cherry Creek High School",
        "type": "High",
        "district": "CCSD",
        "zip": 80111,
        "lat": 39.6299727,
        "lon": -104.880273,
        "courses": 4,
        "fr": 10.6,
        "white": 71.4,
        "black": 3.02,
        "latino": 11.4
    },
    {
        "school": "Eaglecrest High School",
        "type": "High",
        "district": "CCSD",
        "zip": 80015,
        "lat": 39.624208,
        "lon": -104.7350476,
        "courses": 2,
        "fr": 26.3,
        "white": 54.2,
        "black": 14.6,
        "latino": 19.7
    },
    {
        "school": "Grandview High School",
        "type": "High",
        "district": "CCSD",
        "zip": 80016,
        "lat": 39.5922732,
        "lon": -104.7468607,
        "courses": 6,
        "fr": 17.6,
        "white": 60.5,
        "black": 8.7,
        "latino": 15.4
    },
    {
        "school": "Overland High School / Institute of Science & Technology",
        "type": "High",
        "district": "CCSD",
        "zip": 80012,
        "lat": 39.6810244,
        "lon": -104.8421985,
        "courses": 11,
        "fr": 51.9,
        "white": 24.3,
        "black": 31.5,
        "latino": 32.6
    },
    {
        "school": "Smoky Hill High School",
        "type": "High",
        "district": "CCSD",
        "zip": 80015,
        "lat": 39.6277917,
        "lon": -104.7996795,
        "courses": 0,
        "fr": 27.4,
        "white": 50,
        "black": 18.2,
        "latino": 17
    },
    {
        "school": "Abraham Lincoln High School",
        "type": "High",
        "district": "DPS",
        "zip": 80219,
        "lat": 39.676654,
        "lon": -105.0269275,
        "courses": 4,
        "fr": 93.2,
        "white": 4.3,
        "black": 1.7,
        "latino": 90.3
    },
    {
        "school": "Academy of Urban Learning",
        "type": "High",
        "district": "DPS",
        "zip": 80211,
        "lat": 39.7589162,
        "lon": -105.0169521,
        "courses": 0,
        "fr": 88.1,
        "white": 2.4,
        "black": 7.9,
        "latino": 84.9
    },
    {
        "school": "Accelerated Schools, Denver",
        "type": "High",
        "district": "DPS",
        "zip": 80210,
        "lat": 39.6771187,
        "lon": -104.9472699,
        "courses": 0,
        "fr": "Unknown ",
        "white": "Unknown ",
        "black": "Unknown ",
        "latino": "Unknown "
    },
    {
        "school": "ACE Community Challenge Charter School (ACE/CCS)",
        "type": "High",
        "district": "DPS",
        "zip": 80204,
        "lat": 39.7314067,
        "lon": -104.9984729,
        "courses": "Unknown",
        "fr": 93.2,
        "white": 0.03,
        "black": 0.03,
        "latino": 91.7
    },
    {
        "school": "Arrupe Jesuit High School",
        "type": "High",
        "district": "Private Denver",
        "zip": 80212,
        "lat": 39.7755694,
        "lon": -105.0476523,
        "courses": 0,
        "fr": "Unknown",
        "white": 3,
        "black": 1,
        "latino": 90
    },
    {
        "school": "Arvada",
        "type": "High",
        "district": "Jeffco",
        "zip": 80004,
        "lat": 39.8158402,
        "lon": -105.0850051,
        "courses": 3,
        "fr": 69.5,
        "white": 47,
        "black": 2.4,
        "latino": 42.6
    },
    {
        "school": "Arvada West",
        "type": "High",
        "district": "Jeffco",
        "zip": 80004,
        "lat": 39.8104936,
        "lon": -105.1274066,
        "courses": 1,
        "fr": 27.4,
        "white": 74.4,
        "black": 0.8,
        "latino": 19.5
    },
    {
        "school": "Beth Jacobs",
        "type": "High",
        "district": "Private Denver",
        "zip": 80204,
        "lat": 39.7382501,
        "lon": -105.052432,
        "courses": 1,
        "white": 85.7,
        "black": 1.6,
        "latino": 11.1
    },
    {
        "school": "Bishop Machebeuf Catholic High School",
        "type": "High",
        "district": "Private Denver",
        "zip": 80230,
        "lat": 39.7243619,
        "lon": -104.8928172,
        "courses": 2,
        "fr": "Unknown",
        "white": 47,
        "black": 22,
        "latino": 8
    },
    {
        "school": "Bruce Randolph School",
        "type": "High",
        "district": "DPS",
        "zip": 80205,
        "lat": 39.7719786,
        "lon": -104.9513839,
        "courses": 0,
        "fr": 94.8,
        "white": "Unknown",
        "black": "Unknown  ",
        "latino": "Unknown "
    },
    {
        "school": "Change Christian Academy",
        "type": "High",
        "district": "Private Denver",
        "zip": 80239,
        "lat": 39.7928211,
        "lon": -104.8456127,
        "courses": "Unknown ",
        "fr": "Unknown ",
        "white": "Unknown ",
        "black": "Unknown ",
        "latino": "Unknown "
    },
    {
        "school": "Chatfield High School",
        "type": "High",
        "district": "Jeffco",
        "zip": 80127,
        "lat": 39.5871244,
        "lon": -105.1316766,
        "courses": 1,
        "fr": 13.8,
        "white": 67.5,
        "black": 1.4,
        "latino": 24
    },
    {
        "school": "Cole High School",
        "type": "High",
        "district": "DSST",
        "zip": 80205,
        "lat": 39.762627,
        "lon": -104.9713632,
        "courses": 0,
        "fr": 72,
        "white": 13,
        "black": 23,
        "latino": 60
    },
    {
        "school": "Collegiate Prep Academy",
        "type": "High",
        "district": "DPS",
        "zip": 80239,
        "lat": 39.7884771,
        "lon": -104.8025127,
        "courses": "Unknown ",
        "fr": 73.8,
        "white": "Unknown ",
        "black": "Unknown ",
        "latino": "Unknown "
    },
    {
        "school": "Colorado High School",
        "type": "High",
        "district": "DPS",
        "zip": 80204,
        "lat": 39.7350274,
        "lon": -105.0078899,
        "courses": 0,
        "fr": 89,
        "white": "Unknown ",
        "black": "Unknown ",
        "latino": "Unknown "
    },
    {
        "school": "Conifer High",
        "type": "High",
        "district": "Jeffco",
        "zip": 80433,
        "lat": 39.5280064,
        "lon": -105.3190182,
        "courses": 1,
        "fr": 15.2,
        "white": 90.7,
        "black": 0.5,
        "latino": 5.8
    },
    {
        "school": "Contemporary Learning Academy High School",
        "type": "High",
        "district": "DPS",
        "zip": 80203,
        "lat": 39.7300792,
        "lon": -104.9866819,
        "courses": 0,
        "fr": 77.5,
        "white": "Unknown ",
        "black": "Unknown ",
        "latino": "Unknown "
    },
    {
        "school": "Dakota Ridge",
        "type": "High",
        "district": "Jeffco",
        "zip": 80127,
        "lat": 39.6043089,
        "lon": -105.1516583,
        "courses": 4,
        "fr": 17.4,
        "white": 77.4,
        "black": 1.1,
        "latino": 15.7
    },
    {
        "school": "Denver Academy",
        "type": "High",
        "district": "DPS",
        "zip": 80222,
        "lat": 39.6736173,
        "lon": -104.9344216,
        "courses": 2,
        "fr": 0,
        "white": 87,
        "black": 2,
        "latino": 6
    },
    {
        "school": "Denver Center for 21st Learning At Wyman",
        "type": "High",
        "district": "DPS",
        "zip": 80218,
        "lat": 39.7426981,
        "lon": -104.9652645,
        "courses": 0,
        "fr": 81,
        "white": 6,
        "black": 38,
        "latino": 53
    },
    {
        "school": "Denver Center for International Studies",
        "type": "High",
        "district": "DPS",
        "zip": 80204,
        "lat": 39.7252559,
        "lon": -104.9964719,
        "courses": 0,
        "fr": 51,
        "white": 32,
        "black": 6,
        "latino": 47
    },
    {
        "school": "Denver Center for International Studies at Montbello",
        "type": "High",
        "district": "DPS",
        "zip": 80239,
        "lat": 39.72526,
        "lon": -104.9964719,
        "courses": 0,
        "fr": 85.4,
        "white": 2,
        "black": 15,
        "latino": 78
    },
    {
        "school": "Denver School of the Arts",
        "type": "High",
        "district": "DPS",
        "zip": 80220,
        "lat": 39.7480269,
        "lon": -104.9055506,
        "courses": 0,
        "fr": 13,
        "white": 68,
        "black": 7,
        "latino": 15
    },
    {
        "school": "East",
        "type": "High",
        "district": "DPS",
        "zip": 80206,
        "lat": 39.7348474,
        "lon": -104.9827746,
        "courses": 3,
        "fr": 34.5,
        "white": 45.73047349251315,
        "black": 20.07284500202347,
        "latino": 23.51274787535411
    },
    {
        "school": "Fred N Thomas Career Education Center",
        "type": "High",
        "district": "DPS",
        "zip": 80211,
        "lat": 39.7553262,
        "lon": -105.0248584,
        "courses": "Unknown",
        "fr": 88.6,
        "white": 6.7,
        "black": 2.6,
        "latino": 87.1
    },
    {
        "school": "George Washington ",
        "type": "High",
        "district": "DPS",
        "zip": 80224,
        "lat": 39.7054946,
        "lon": -104.9164241,
        "courses": 2,
        "fr": 50.97,
        "white": 30,
        "black": 42,
        "latino": 22.3
    },
    {
        "school": "Green Mountain",
        "type": "High",
        "district": "Jeffco",
        "zip": 80228,
        "lat": 39.6938999,
        "lon": -105.1456318,
        "courses": 3,
        "fr": 24.8,
        "white": 74.7,
        "black": 1.5,
        "latino": 17.4
    },
    {
        "school": "Green Valley Ranch High School",
        "type": "High",
        "district": "DSST",
        "zip": 80249,
        "lat": 39.7847122,
        "lon": -104.7830117,
        "courses": "Unknown",
        "fr": 69,
        "white": 9,
        "black": 27,
        "latino": 50
    },
    {
        "school": "High Tech Early College",
        "type": "High",
        "district": "DPS",
        "zip": 80239,
        "lat": 39.7424041,
        "lon": -104.9675337,
        "courses": 6,
        "fr": 74.1,
        "white": 4.725897920604915,
        "black": 17.013232514177695,
        "latino": 72.0226843100189
    },
    {
        "school": "John F. Kennedy",
        "type": "High",
        "district": "DPS",
        "zip": 80227,
        "lat": 39.6624384,
        "lon": -105.0712812,
        "courses": 1,
        "fr": 75.5,
        "white": 12.219451371571074,
        "black": 2.493765586034913,
        "latino": 73.73233582709892
    },
    {
        "school": "Lakewood High school",
        "type": "High",
        "district": "Jeffco",
        "zip": 80215,
        "lat": 39.7281072,
        "lon": -105.1064962,
        "courses": 5,
        "fr": 32.7,
        "white": 61,
        "black": 1.6,
        "latino": 27.4
    },
    {
        "school": "Manual High School",
        "type": "High",
        "district": "DPS",
        "zip": 80205,
        "lat": 39.7561895,
        "lon": -104.9677881,
        "courses": 1,
        "fr": 80,
        "white": 5.6,
        "black": 40.6,
        "latino": 53.1
    },
    {
        "school": "Martin Luther King Early College",
        "type": "High",
        "district": "DPS",
        "zip": 80249,
        "lat": 39.7809484,
        "lon": -104.7623365,
        "courses": 1,
        "fr": 78.7,
        "white": 4.790419161676647,
        "black": 19.01197604790419,
        "latino": 68.8622754491018
    },
    {
        "school": "North",
        "type": "High",
        "district": "DPS",
        "zip": 80211,
        "lat": 39.7599909,
        "lon": -105.0243933,
        "courses": 2,
        "fr": 83.3,
        "white": 9.850107066381156,
        "black": 7.0663811563169165,
        "latino": 79.7644539614561
    },
    {
        "school": "Northfield ",
        "type": "High",
        "district": "DPS",
        "zip": 80238,
        "lat": 39.7970461,
        "lon": -104.8845433,
        "courses": 3,
        "fr": 50,
        "white": 31.443298969072167,
        "black": 31.443298969072167,
        "latino": 31.443298969072167
    },
    {
        "school": "Pomona",
        "type": "High",
        "district": "Jeffco",
        "zip": 80005,
        "lat": 39.8493472,
        "lon": -105.0911329,
        "courses": 1,
        "fr": 37.5,
        "white": 65.2,
        "black": 1.7,
        "latino": 26.8
    },
    {
        "school": "Ralston Valley",
        "type": "High",
        "district": "Jeffco",
        "zip": 80005,
        "lat": 39.843509,
        "lon": -105.150808,
        "courses": 2,
        "fr": 9.8,
        "white": 81.3,
        "black": 1,
        "latino": 11.8
    },
    {
        "school": "Respect Academy",
        "type": "High",
        "district": "DPS",
        "zip": 80219,
        "lat": 39.6762623,
        "lon": -105.0290902,
        "courses": 0,
        "fr": 76.6,
        "white": 3.7383177570093458,
        "black": 3.7383177570093458,
        "latino": 90.65420560747663
    },
    {
        "school": "RidgeView Academy",
        "type": "High",
        "district": "DPS",
        "zip": 80137,
        "lat": 39.6699564,
        "lon": -104.9535171,
        "courses": "Unknown",
        "fr": 100,
        "white": 30.392156862745097,
        "black": 27.45098039215686,
        "latino": 39.705882352941174
    },
    {
        "school": "Rise UP",
        "type": "High",
        "district": "DPS",
        "zip": 80204,
        "lat": 39.6687176,
        "lon": -104.9417708,
        "courses": "Unknown",
        "fr": 78.2,
        "white": 6.722689075630252,
        "black": 15.126050420168069,
        "latino": 72.26890756302521
    },
    {
        "school": "Rocky Mountain School of Expeditionary learning",
        "type": "High",
        "district": "DPS",
        "zip": 80222,
        "lat": 39.685543,
        "lon": -104.9216457,
        "courses": 1,
        "fr": 0,
        "white": 77,
        "black": 1.8,
        "latino": 10.85
    },
    {
        "school": "SOAR Academy",
        "type": "High",
        "district": "DPS",
        "zip": 80236,
        "lat": 39.7847961,
        "lon": -104.7795885,
        "courses": "Unknown ",
        "fr": 70.7,
        "white": 12.92,
        "black": 8.84,
        "latino": 75.51
    },
    {
        "school": "South",
        "type": "High",
        "district": "DPS",
        "zip": 80210,
        "lat": 38.9546948,
        "lon": -105.9318625,
        "courses": "Unknown",
        "fr": 67.4,
        "white": 26.7,
        "black": 23.2,
        "latino": 34.1
    },
    {
        "school": "South High School",
        "type": "High",
        "district": "DPS",
        "zip": 80210,
        "lat": 39.6921517,
        "lon": -104.9660288,
        "courses": 1,
        "fr": 70.55,
        "white": 28.4,
        "black": 24.1,
        "latino": 33.9
    },
    {
        "school": "Southwest Early College",
        "type": "High",
        "district": "DPS",
        "zip": 80236,
        "lat": 39.6625229,
        "lon": -105.0303161,
        "courses": 0,
        "fr": 77,
        "white": 6,
        "black": 2,
        "latino": 89
    },
    {
        "school": "Stapleton High School",
        "type": "High",
        "district": "DSST",
        "zip": 80238,
        "lat": 39.7479542,
        "lon": -104.8922707,
        "courses": 0,
        "fr": 44,
        "white": 30,
        "black": 24,
        "latino": 36
    },
    {
        "school": "STRIVE Prep School",
        "type": "High",
        "district": "DPS",
        "zip": 80211,
        "lat": 39.7535652,
        "lon": -105.019728,
        "courses": "Unknown",
        "fr": 88.5,
        "white": 0.1,
        "black": 0.1,
        "latino": 92
    },
    {
        "school": "Summit Academy",
        "type": "High",
        "district": "DPS",
        "zip": 80236,
        "lat": 39.6606989,
        "lon": -105.0296147,
        "courses": "Unknown",
        "fr": 80.1,
        "white": 8.333333333333334,
        "black": 1.923076923076923,
        "latino": 85.25641025641025
    },
    {
        "school": "Thomas Jefferson High School",
        "type": "High",
        "district": "DPS",
        "zip": 80237,
        "lat": 39.6468496,
        "lon": -104.9142354,
        "courses": 1,
        "fr": 42.39,
        "white": 38.7,
        "black": 29.1,
        "latino": 21.7
    },
    {
        "school": "Venture Prep High School",
        "type": "High",
        "district": "DPS",
        "zip": 80207,
        "lat": 39.7541993,
        "lon": -104.9216061,
        "courses": 0,
        "fr": 85.4,
        "white": 0.1,
        "black": 29.1,
        "latino": 60.5
    },
    {
        "school": "Vista Academy",
        "type": "High",
        "district": "DPS",
        "zip": 80249,
        "lat": 39.7845782,
        "lon": -104.7829481,
        "courses": "Unknown",
        "fr": 75.7,
        "white": 5.6521739130434785,
        "black": 22.608695652173914,
        "latino": 67.3913043478261
    },
    {
        "school": "West High School",
        "type": "High",
        "district": "DPS",
        "zip": 80204,
        "lat": 39.7312483,
        "lon": -104.9949708,
        "courses": "Unknown",
        "fr": 85.18,
        "white": 5.2,
        "black": 5.3,
        "latino": 86.3
    },
    {
        "school": "Wheat Ridge",
        "type": "High",
        "district": "Jeffco",
        "zip": 80033,
        "lat": 39.7638182,
        "lon": -105.1035994,
        "courses": 4,
        "fr": 47,
        "white": 57.3,
        "black": 1.5,
        "latino": 36.4
    },
    {
        "school": "Grant Ranch Middle Ranch",
        "type": "Middle",
        "district": "DPS",
        "zip": 80123,
        "lat": 39.6175228,
        "lon": -105.0665904,
        "courses": 1,
        "fr": 57.7,
        "white": 34.4,
        "black": 1.6,
        "latino": 51.09
    },
    {
        "school": "Martin Luther King Jr Early College",
        "type": "Middle",
        "district": "DPS",
        "zip": 80249,
        "lat": 39.7809484,
        "lon": -104.7623418,
        "courses": 0,
        "fr": 85.9,
        "white": 4.29999999999999,
        "black": 26.36,
        "latino": 63.04
    },
    {
        "school": "Whittier K-8",
        "type": "Middle",
        "district": "DPS",
        "zip": 80205,
        "lat": 39.7527688,
        "lon": -104.9749523,
        "courses": 0,
        "fr": 90.2,
        "white": 5.53,
        "black": 47.5,
        "latino": 36.8
    },
    {
        "school": "Valley View K-8",
        "type": "Middle",
        "district": "DPS",
        "zip": 80221,
        "lat": 39.8231412,
        "lon": -104.9974541,
        "courses": 0,
        "fr": 70,
        "white": 23,
        "black": "Unknown",
        "latino": "Unknown"
    },
    {
        "school": "Henry World Middle School",
        "type": "Middle",
        "district": "DPS",
        "zip": 80227,
        "lat": 39.6607407,
        "lon": -105.060796,
        "courses": 0,
        "fr": 86.9,
        "white": 10.31,
        "black": 4.4,
        "latino": 75.72
    },
    {
        "school": "Denver Green School",
        "type": "Middle",
        "district": "DPS",
        "zip": 80224,
        "lat": 39.7067787,
        "lon": -104.9111685,
        "courses": 0,
        "fr": 59.9,
        "white": 38.8,
        "black": 22.38,
        "latino": 24.8
    },
    {
        "school": "Pitt Waller K-8",
        "type": "Middle",
        "district": "DPS",
        "zip": 80249,
        "lat": 39.7899138,
        "lon": -104.7387323,
        "courses": 0,
        "fr": 78.3,
        "white": 7.40000000000001,
        "black": 32.17,
        "latino": 48.7
    },
    {
        "school": "Bryant Webster K-8",
        "type": "Middle",
        "district": "DPS",
        "zip": 80211,
        "lat": 39.7674438,
        "lon": -105.0105917,
        "courses": 0,
        "fr": 86,
        "white": 4.4,
        "black": 0,
        "latino": 94.6
    },
    {
        "school": "Morey Middle School",
        "type": "Middle",
        "district": "DPS",
        "zip": 80218,
        "lat": 39.7380597,
        "lon": -104.9791383,
        "courses": 1,
        "fr": 47.4,
        "white": 41,
        "black": 23.54,
        "latino": 26.62
    },
    {
        "school": "Grant Beacon Middle Scool",
        "type": "Middle",
        "district": "DPS",
        "zip": 80210,
        "lat": 39.6854641,
        "lon": -104.9818539,
        "courses": 1,
        "fr": 83.5,
        "white": 12.6,
        "black": 41,
        "latino": 76.21
    },
    {
        "school": "West Middle School",
        "type": "Middle",
        "district": "CCSD",
        "zip": 80121,
        "lat": 39.622282,
        "lon": -104.9257483,
        "fr": "Unknown",
        "white": 70,
        "black": 3.1,
        "latino": 14.3
    },
    {
        "school": "Hamilton Middle School",
        "type": "Middle",
        "district": "DPS",
        "zip": 80231,
        "lat": 39.6597208,
        "lon": -104.8943782,
        "courses": 1,
        "fr": 57.9,
        "white": 37,
        "black": 16,
        "latino": 36
    },
    {
        "school": "Silver Hills Middle",
        "type": "Middle",
        "district": "DPS ",
        "zip": 80234,
        "lat": 39.9227345,
        "lon": -104.99721,
        "courses": 1,
        "fr": "Unknown",
        "white": 63.9,
        "black": 2,
        "latino": 40
    },
    {
        "school": "Hill campus of arts & sciences",
        "type": "Middle",
        "district": "DPS",
        "zip": 80220,
        "lat": 39.7237671,
        "lon": -104.9376063,
        "courses": 1,
        "fr": "Unknown",
        "white": 35,
        "black": 36,
        "latino": 20
    },
    {
        "school": "Skinner Middle",
        "type": "Middle",
        "district": "DPS",
        "zip": 80211,
        "lat": 39.7724314,
        "lon": -105.0336957,
        "courses": 0,
        "fr": 66.4,
        "white": 26.9,
        "black": 61,
        "latino": 5
    },
    {
        "school": "Kepner Middle",
        "type": "Middle",
        "district": "DPS",
        "zip": 80219,
        "lat": 39.699803,
        "lon": -105.0306056,
        "courses": "Unknown",
        "fr": 96,
        "white": 3.59999999999999,
        "black": 2.5,
        "latino": 89
    },
    {
        "school": "Scott Carpenter",
        "type": "Middle",
        "district": "Adams County ",
        "zip": 80221,
        "lat": 39.8244195,
        "lon": -105.0055221,
        "courses": 1,
        "fr": 8,
        "white": 9,
        "black": 1,
        "latino": 84
    },
    {
        "school": "Ranum Middle",
        "type": "Middle",
        "district": "Adams County ",
        "zip": 80221,
        "lat": 39.8438291,
        "lon": -105.019427,
        "courses": 1,
        "fr": 12.5,
        "white": 12,
        "black": 0.5,
        "latino": 78
    },
    {
        "school": "College View Middle",
        "type": "Middle",
        "district": "DPS",
        "zip": 80236,
        "lat": 39.6599675,
        "lon": -105.0296094,
        "courses": "Unknown",
        "fr": 93.7,
        "white": 5.09999999999999,
        "black": 5,
        "latino": 78
    },
    {
        "school": "DSST Stapleton",
        "type": "Middle",
        "district": "DPS",
        "zip": 80238,
        "lat": 39.747958,
        "lon": -104.8922707,
        "courses": "Unknown",
        "fr": 60.5,
        "white": 24.9,
        "black": 25,
        "latino": 36
    },
    {
        "school": "Kipp Sunshine Peak Academy",
        "type": "Middle",
        "district": "DPS",
        "zip": 80223,
        "lat": 39.7097945,
        "lon": -105.0150164,
        "courses": "Unknown",
        "fr": 97.5,
        "white": 1.5,
        "black": 0,
        "latino": 97
    },
    {
        "school": "Manny Martinez Middle School",
        "type": "Middle",
        "district": "DSST",
        "zip": 80204,
        "lat": 39.7317951,
        "lon": -104.997423,
        "courses": "Unknown",
        "fr": 86.6,
        "white": 6.6,
        "black": 6.7,
        "latino": 86
    },
    {
        "school": "Cole Middle",
        "type": "Middle",
        "district": "DPS",
        "zip": 80205,
        "lat": 39.7625866,
        "lon": -104.9713943,
        "courses": "Unknown",
        "fr": 82,
        "white": 6,
        "black": 17,
        "latino": 73
    },
    {
        "school": "Abraham Lincoln High School",
        "type": "High",
        "district": "DPS",
        "zip": 80219,
        "lat": 39.6766581,
        "lon": -105.0291215,
        "courses": "Unknown",
        "fr": 93.2,
        "white": 2.29,
        "black": 25.1,
        "latino": 90.45
    },
    {
        "school": "D'Evelyn Junior School",
        "type": "Middle",
        "district": "JeffCO",
        "zip": 80235,
        "lat": 39.6430773,
        "lon": -105.1166833,
        "courses": 0,
        "fr": 24.8,
        "white": 68.8,
        "black": 11,
        "latino": 22.9
    },
    {
        "school": "Howell K-8",
        "type": "Middle",
        "district": "DPS",
        "zip": 80239,
        "lat": 39.7763804,
        "lon": -104.8348493,
        "courses": 0,
        "fr": 92.6,
        "white": 1.07,
        "black": 99.7,
        "latino": 49.67
    },
    {
        "school": "Academy of Urban Learning",
        "type": "Middle",
        "district": "DPS",
        "zip": 80204,
        "lat": 39.7589203,
        "lon": -105.0191461,
        "courses": "Unknown",
        "fr": 88.1,
        "white": 2.4,
        "black": 79,
        "latino": 84.92
    },
    {
        "school": "ACE Community Challenge Charter School (ACE/CCS)",
        "type": "Middle",
        "district": "DPS",
        "zip": 80207,
        "lat": 39.7314108,
        "lon": -105.0006669,
        "courses": "Unknown",
        "fr": 93.2,
        "white": 3.79999999999999,
        "black": 37,
        "latino": 91.7
    },
    {
        "school": "Venture Prep High School",
        "type": "High",
        "district": "DPS",
        "zip": 80005,
        "lat": 39.7542034,
        "lon": -104.9238001,
        "courses": "Unknown",
        "fr": 85.4,
        "white": 6.90000000000001,
        "black": 29.11,
        "latino": 60.5
    },
    {
        "school": "Moore Middle School ",
        "type": "Middle",
        "district": "JeffCO",
        "zip": 80005,
        "lat": 39.8570246,
        "lon": -105.0913714,
        "courses": 0,
        "fr": 75.2,
        "white": 27.2,
        "black": 70,
        "latino": 38
    },
    {
        "school": "Escuela Tlatelolco Centro",
        "type": "Middle",
        "district": "DPS",
        "zip": 80211,
        "lat": 39.7594957,
        "lon": -105.0279923,
        "courses": 0,
        "fr": 84.6,
        "white": 1.7,
        "black": 8,
        "latino": 95.7
    },
    {
        "school": "Challenge School",
        "type": "Middle",
        "district": "DPS",
        "zip": 80247,
        "lat": 39.6976994,
        "lon": -104.8787776,
        "courses": 1,
        "fr": 4.9,
        "white": 48.4,
        "black": 7.5,
        "latino": 12.9
    },
    {
        "school": "Cherry Creek Charter Academy",
        "type": "Middle",
        "district": "DPS",
        "zip": 80111,
        "lat": 39.6028491,
        "lon": -104.8769895,
        "courses": 1,
        "fr": 0,
        "white": 65,
        "black": 8,
        "latino": 7
    },
    {
        "school": "Slavens K-8",
        "type": "Middle",
        "district": "DPS",
        "zip": 80210,
        "lat": 39.6619199,
        "lon": -104.9579024,
        "courses": 1,
        "fr": 9.1,
        "white": 82.2,
        "black": 10.1,
        "latino": 7.1
    },
    {
        "school": "Denver School of the Arts",
        "type": "Middle",
        "district": "DPS",
        "zip": 80220,
        "lat": 39.7480269,
        "lon": -104.9077393,
        "courses": 0,
        "fr": 10.9,
        "white": 69.6,
        "black": 40.3,
        "latino": 13.77
    },
    {
        "school": "Core Knowledge Charter School",
        "type": "Middle",
        "district": "DPS",
        "zip": 80138,
        "lat": 39.5318629,
        "lon": -104.7590817,
        "courses": 1,
        "fr": 4,
        "white": 87,
        "black": 4,
        "latino": 4.2
    },
    {
        "school": "Elbert Junior-Senior High School",
        "type": "Middle",
        "district": "DPS",
        "zip": 80106,
        "lat": 39.224718,
        "lon": -104.5401692,
        "courses": 1,
        "fr": 32,
        "white": 91,
        "black": 0,
        "latino": 0
    },
    {
        "school": "Montessori Peaks Charter Academy",
        "type": "Middle",
        "district": "DPS",
        "zip": 80123,
        "lat": 39.6055821,
        "lon": -105.1108573,
        "courses": 1,
        "fr": "Unknown",
        "white": 84,
        "black": 0.4,
        "latino": 9
    },
    {
        "school": "Mead Middle School",
        "type": "Middle",
        "district": "DPS",
        "zip": 80542,
        "lat": 40.2326128,
        "lon": -105.0061343,
        "courses": 0,
        "fr": "Unknown",
        "white": 69,
        "black": 0.9,
        "latino": 8
    },
    {
        "school": "Stargate Charter School",
        "type": "Middle",
        "district": "DPS",
        "zip": 80241,
        "lat": 39.9348282,
        "lon": -104.9435145,
        "courses": 1,
        "fr": "Unknown",
        "white": 84,
        "black": 0.5,
        "latino": 10
    },
    {
        "school": "Windsor Charter Academy",
        "type": "Middle",
        "district": "DPS",
        "zip": 80550,
        "lat": 40.4717395,
        "lon": -104.8837683,
        "courses": 2,
        "fr": "Unknown",
        "white": 86,
        "black": 2,
        "latino": 8
    },
    {
        "school": "Byers Middle School",
        "type": "Middle",
        "district": "DSST",
        "zip": 80209,
        "lat": 39.71369,
        "lon": -104.9820472,
        "courses": 1,
        "fr": 36.8,
        "white": 59,
        "black": 7,
        "latino": 22
    },
    {
        "school": "North Arvada",
        "type": "Middle",
        "district": "Jeffco",
        "zip": 80003,
        "lat": 39.8284881,
        "lon": -105.0756467,
        "courses": 1,
        "fr": 58,
        "white": 54.6,
        "black": 0.2,
        "latino": 37
    },
    {
        "school": "Carmody",
        "type": "Middle",
        "district": "Jeffco",
        "zip": 80227,
        "lat": 39.6795535,
        "lon": -105.108741,
        "courses": 1,
        "fr": 48.6,
        "white": 60.4,
        "black": 1.4,
        "latino": 31
    },
    {
        "school": "Ken Caryl",
        "type": "Middle",
        "district": "Jeffco",
        "zip": 80128,
        "lat": 39.5815934,
        "lon": -105.0696252,
        "courses": 1,
        "fr": 22.2,
        "white": 74.9,
        "black": 1.5,
        "latino": 34.5
    },
    {
        "school": "Bell",
        "type": "Middle",
        "district": "Jeffco",
        "zip": 80401,
        "lat": 39.7337096,
        "lon": -105.1955509,
        "courses": 1,
        "fr": 32.9,
        "white": 71.8,
        "black": 1.1,
        "latino": 34.5
    },
    {
        "school": "Lotus School for Excellence High School",
        "type": "High",
        "district": "Aurora",
        "zip": 80012,
        "lat": 39.712263,
        "lon": -104.8622427,
        "courses": "Unknown ",
        "fr": 67,
        "white": 19.1,
        "black": 38.7,
        "latino": 38
    },
    {
        "school": "Vanguard Classical School - East Campus High School",
        "type": "High",
        "district": "Aurora",
        "zip": 80017,
        "lat": 39.7159815,
        "lon": -104.8726772,
        "courses": 1,
        "fr": 56.3,
        "white": 27.3,
        "black": 29.9,
        "latino": 36
    },
    {
        "school": "APS Online High School",
        "type": "High",
        "district": "Aurora",
        "zip": 80010,
        "lat": 39.732393,
        "lon": -104.851947,
        "courses": "Unknown ",
        "fr": 46.2,
        "white": 18.9,
        "black": 15.4,
        "latino": 57.3
    },
    {
        "school": "Aurora Quest Middle School",
        "type": "Middle",
        "district": "Aurora",
        "zip": 80011,
        "lat": 39.7203277,
        "lon": -104.7889548,
        "courses": 1,
        "fr": 20.3,
        "white": 52.6,
        "black": 9.7,
        "latino": 17.9
    },
    {
        "school": "Crossroads Center High School",
        "type": "High",
        "district": "Aurora",
        "zip": 80011,
        "lat": 39.7199292,
        "lon": -104.7922167,
        "courses": 0,
        "fr": "Unknown ",
        "white": "Unknown ",
        "black": "Unknown ",
        "latino": "Unknown "
    },
    {
        "school": "Futures Academy High School",
        "type": "High",
        "district": "Aurora",
        "zip": 80011,
        "lat": 38.223912,
        "lon": -104.2968355,
        "courses": 0,
        "fr": "Unknown ",
        "white": 10,
        "black": 20,
        "latino": 60
    },
    {
        "school": "William Smith High School",
        "type": "High",
        "district": "Aurora",
        "zip": 80011,
        "lat": 39.7217635,
        "lon": -104.7897233,
        "courses": 0,
        "fr": 54.6,
        "white": 23.7,
        "black": 13.2,
        "latino": 56.2
    },
    {
        "school": "AXL Academy (Expeditionary Learning) Middle School",
        "type": "Middle",
        "district": "Aurora",
        "zip": 80046,
        "lat": 39.6811655,
        "lon": -104.8252772,
        "courses": 0,
        "fr": "Unknown ",
        "white": 27,
        "black": 30,
        "latino": 34
    },
    {
        "school": "Global Villiage Middle School",
        "type": "Middle",
        "district": "Aurora",
        "zip": 80017,
        "lat": 39.7264257,
        "lon": -104.881458,
        "courses": 0,
        "fr": 59.1,
        "white": 15.3,
        "black": 22.1,
        "latino": 52.6
    },
    {
        "school": "Aurora Central",
        "type": "High",
        "district": "Aurora",
        "zip": 80010,
        "lat": 39.7320379,
        "lon": -104.8518329,
        "courses": 0,
        "fr": 69.8,
        "white": 4.5,
        "black": 15.8,
        "latino": 66.8
    },
    {
        "school": "Aurora West College Preparatory Academy",
        "type": "High",
        "district": "Aurora",
        "zip": 80010,
        "lat": 39.735991,
        "lon": -104.8704337,
        "courses": 0,
        "fr": 77.7,
        "white": 5.1,
        "black": 8.7,
        "latino": 72.1
    },
    {
        "school": "Gateway",
        "type": "High",
        "district": "Aurora",
        "zip": 80012,
        "lat": 39.785816,
        "lon": -104.7909822,
        "courses": 0,
        "fr": 60,
        "white": 14.9,
        "black": 25.7,
        "latino": 50.5
    },
    {
        "school": "Aurora Academy",
        "type": "Middle",
        "district": "Aurora",
        "zip": 80010,
        "lat": 39.7186109,
        "lon": -104.8691173,
        "courses": "Unknown",
        "fr": 52.9,
        "white": 26.7,
        "black": 31.9,
        "latino": 35.5
    },
    {
        "school": "William Smith",
        "type": "High",
        "district": "Aurora",
        "zip": 80011,
        "lat": 39.7186109,
        "lon": -104.8691173,
        "courses": 0,
        "fr": 54.6,
        "white": 23.7,
        "black": 13.2,
        "latino": 56.2
    },
    {
        "school": "Vista PEAK Preparatory",
        "type": "High",
        "district": "Aurora",
        "zip": 80018,
        "lat": 39.7219952,
        "lon": -104.6999592,
        "courses": 0,
        "fr": 45.6,
        "white": 26.8,
        "black": 16.5,
        "latino": 44.7
    },
    {
        "school": "Rangeview",
        "type": "High",
        "district": "Aurora",
        "zip": 80013,
        "lat": 39.6753557,
        "lon": -104.7813507,
        "courses": "Unknown",
        "fr": 45.6,
        "white": 27,
        "black": 23.8,
        "latino": 36.6
    },
    {
        "school": "Hinkley",
        "type": "High",
        "district": "Aurora",
        "zip": 80011,
        "lat": 39.7344737,
        "lon": -104.8086261,
        "courses": "Unknown",
        "fr": 71.4,
        "white": 8.6,
        "black": 15.4,
        "latino": 68.1
    },
    {
        "school": "South Middle School",
        "type": "Middle ",
        "district": "Aurora",
        "zip": 80011,
        "lat": 39.7213763,
        "lon": -104.8438645,
        "courses": "Unknown",
        "fr": 98.3,
        "white": 8.4,
        "black": 20.4,
        "latino": 65
    },
    {
        "school": "North Middle School Health Sciences & Technology Campus",
        "type": "Middle ",
        "district": "Aurora",
        "zip": 80010,
        "lat": 39.748514,
        "lon": -104.8480224,
        "courses": "Unknown",
        "fr": 85.6,
        "white": 0.5,
        "black": 72.2,
        "latino": 7
    },
    {
        "school": "Mrachek Middle School",
        "type": "Middle",
        "district": "Aurora",
        "zip": 80013,
        "lat": 39.6813343,
        "lon": -104.7827421,
        "courses": "Unknown",
        "fr": 65.6,
        "white": 1.1,
        "black": 47.1,
        "latino": 18.7
    },
    {
        "school": "Columbia Middle School",
        "type": "Middle ",
        "district": "Aurora",
        "zip": 80013,
        "lat": 39.6597222,
        "lon": -104.7827778,
        "courses": 0,
        "fr": 58.8,
        "white": 17.6,
        "black": 40.8,
        "latino": 30.2
    },
    {
        "school": "East Middle School",
        "type": "Middle",
        "district": "Aurora",
        "zip": 80011,
        "lat": 39.734436,
        "lon": -104.813277,
        "courses": 0,
        "fr": 83.9,
        "white": 0.9,
        "black": 16,
        "latino": 69.6
    },
    {
        "school": "Aurora Hills Middle School",
        "type": "Middle ",
        "district": "Aurora",
        "zip": 80012,
        "lat": 39.6993411,
        "lon": -104.8395147,
        "courses": "Unknown",
        "fr": 75.6,
        "white": 10.7,
        "black": 23.1,
        "latino": 57.5
    },
    {
        "school": "Aurora West College Prep Academy Middle School",
        "type": "Middle ",
        "district": "Aurora",
        "zip": 80012,
        "lat": 39.735991,
        "lon": -104.8704337,
        "courses": "Unknown",
        "fr": 77.7,
        "white": 0,
        "black": 72.1,
        "latino": 5.1
    }
]